{"fetched_at":"2026-07-12T07:15:18.323Z","source":"https://celestrak.org/NORAD/elements/gp.php?GROUP=kuiper&FORMAT=JSON","constellation":"kuiper","records":[{"OBJECT_NAME":"KUIPER-00265","OBJECT_ID":"2025-301AC","EPOCH":"2026-07-11T04:23:56.453856","CLASSIFICATION_TYPE":"U","MEAN_MOTION":14.79938951,"ECCENTRICITY":0.00006514,"INCLINATION":51.9013,"RA_OF_ASC_NODE":259.554,"ARG_OF_PERICENTER":111.5917,"MEAN_ANOMALY":248.5115,"EPHEMERIS_TYPE":0,"NORAD_CAT_ID":67159,"ELEMENT_SET_NO":999,"REV_AT_EPOCH":3177,"BSTAR":0.00023550022,"MEAN_MOTION_DOT":0.00001575,"MEAN_MOTION_DDOT":0},{"OBJECT_NAME":"KUIPER-00159","OBJECT_ID":"2026-030A","EPOCH":"2026-07-11T22:00:03.000096","CLASSIFICATION_TYPE":"U","MEAN_MOTION":15.31477323,"ECCENTRICITY":0.0005832,"INCLINATION":51.8876,"RA_OF_ASC_NODE":338.7757,"ARG_OF_PERICENTER":117.7899,"MEAN_ANOMALY":134.1491,"EPHEMERIS_TYPE":0,"NORAD_CAT_ID":67764,"ELEMENT_SET_NO":999,"REV_AT_EPOCH":493,"BSTAR":-0.068828657,"MEAN_MOTION_DOT":-0.01900618,"MEAN_MOTION_DDOT":0},{"OBJECT_NAME":"KUIPER-00160","OBJECT_ID":"2026-030B","EPOCH":"2026-07-11T16:01:07.102848","CLASSIFICATION_TYPE":"U","MEAN_MOTION":15.37440793,"ECCENTRICITY":0.00069449,"INCLINATION":51.8811,"RA_OF_ASC_NODE":339.8453,"ARG_OF_PERICENTER":138.4719,"MEAN_ANOMALY":221.6796,"EPHEMERIS_TYPE":0,"NORAD_CAT_ID":67765,"ELEMENT_SET_NO":999,"REV_AT_EPOCH":2416,"BSTAR":0.00054213433,"MEAN_MOTION_DOT":0.00019888,"MEAN_MOTION_DDOT":0},{"OBJECT_NAME":"KUIPER-00177","OBJECT_ID":"2026-030C","EPOCH":"2026-07-11T22:34:23.810304","CLASSIFICATION_TYPE":"U","MEAN_MOTION":14.79932354,"ECCENTRICITY":0.00006343,"INCLINATION":51.9007,"RA_OF_ASC_NODE":23.6866,"ARG_OF_PERICENTER":108.2247,"MEAN_ANOMALY":251.8784,"EPHEMERIS_TYPE":0,"NORAD_CAT_ID":67766,"ELEMENT_SET_NO":999,"REV_AT_EPOCH":2357,"BSTAR":0.00025420089,"MEAN_MOTION_DOT":0.00001717,"MEAN_MOTION_DDOT":0},{"OBJECT_NAME":"KUIPER-00178","OBJECT_ID":"2026-030D","EPOCH":"2026-07-11T21:45:45.893952","CLASSIFICATION_TYPE":"U","MEAN_MOTION":14.79935871,"ECCENTRICITY":0.00007774,"INCLINATION":51.9004,"RA_OF_ASC_NODE":23.8185,"ARG_OF_PERICENTER":121.3832,"MEAN_ANOMALY":238.7206,"EPHEMERIS_TYPE":0,"NORAD_CAT_ID":67767,"ELEMENT_SET_NO":999,"REV_AT_EPOCH":2357,"BSTAR":0.00028400899,"MEAN_MOTION_DOT":0.00001945,"MEAN_MOTION_DDOT":0},{"OBJECT_NAME":"KUIPER-00180","OBJECT_ID":"2026-030E","EPOCH":"2026-07-11T12:10:04.252224","CLASSIFICATION_TYPE":"U","MEAN_MOTION":14.79934101,"ECCENTRICITY":0.00007259,"INCLINATION":51.8987,"RA_OF_ASC_NODE":20.5898,"ARG_OF_PERICENTER":115.6553,"MEAN_ANOMALY":244.4484,"EPHEMERIS_TYPE":0,"NORAD_CAT_ID":67768,"ELEMENT_SET_NO":999,"REV_AT_EPOCH":2358,"BSTAR":0.00030305783,"MEAN_MOTION_DOT":0.0000209,"MEAN_MOTION_DDOT":0},{"OBJECT_NAME":"KUIPER-00197","OBJECT_ID":"2026-030F","EPOCH":"2026-07-11T15:55:37.192224","CLASSIFICATION_TYPE":"U","MEAN_MOTION":14.79935432,"ECCENTRICITY":0.00006498,"INCLINATION":51.8991,"RA_OF_ASC_NODE":359.9102,"ARG_OF_PERICENTER":159.9862,"MEAN_ANOMALY":200.1126,"EPHEMERIS_TYPE":0,"NORAD_CAT_ID":67769,"ELEMENT_SET_NO":999,"REV_AT_EPOCH":2388,"BSTAR":0.00028856312,"MEAN_MOTION_DOT":0.00001979,"MEAN_MOTION_DDOT":0},{"OBJECT_NAME":"KUIPER-00198","OBJECT_ID":"2026-030G","EPOCH":"2026-07-11T21:16:31.541088","CLASSIFICATION_TYPE":"U","MEAN_MOTION":14.79917712,"ECCENTRICITY":0.00006743,"INCLINATION":51.9003,"RA_OF_ASC_NODE":11.4057,"ARG_OF_PERICENTER":127.7238,"MEAN_ANOMALY":232.3786,"EPHEMERIS_TYPE":0,"NORAD_CAT_ID":67770,"ELEMENT_SET_NO":999,"REV_AT_EPOCH":2374,"BSTAR":0.00028025598,"MEAN_MOTION_DOT":0.00001915,"MEAN_MOTION_DDOT":0},{"OBJECT_NAME":"KUIPER-00199","OBJECT_ID":"2026-030H","EPOCH":"2026-07-11T15:00:55.079136","CLASSIFICATION_TYPE":"U","MEAN_MOTION":15.369837,"ECCENTRICITY":0.00101227,"INCLINATION":51.8814,"RA_OF_ASC_NODE":341.7773,"ARG_OF_PERICENTER":140.6385,"MEAN_ANOMALY":219.5339,"EPHEMERIS_TYPE":0,"NORAD_CAT_ID":67771,"ELEMENT_SET_NO":999,"REV_AT_EPOCH":2413,"BSTAR":0.00060788063,"MEAN_MOTION_DOT":0.0002204,"MEAN_MOTION_DDOT":0},{"OBJECT_NAME":"KUIPER-00200","OBJECT_ID":"2026-030J","EPOCH":"2026-07-11T18:25:15.649536","CLASSIFICATION_TYPE":"U","MEAN_MOTION":14.79882032,"ECCENTRICITY":0.0001277,"INCLINATION":51.9002,"RA_OF_ASC_NODE":356.9748,"ARG_OF_PERICENTER":77.8932,"MEAN_ANOMALY":282.2173,"EPHEMERIS_TYPE":0,"NORAD_CAT_ID":67772,"ELEMENT_SET_NO":999,"REV_AT_EPOCH":2393,"BSTAR":-0.0008177796,"MEAN_MOTION_DOT":-0.00006442,"MEAN_MOTION_DDOT":0},{"OBJECT_NAME":"KUIPER-00203","OBJECT_ID":"2026-030K","EPOCH":"2026-07-11T22:26:37.169952","CLASSIFICATION_TYPE":"U","MEAN_MOTION":14.7993025,"ECCENTRICITY":0.00006206,"INCLINATION":51.9061,"RA_OF_ASC_NODE":28.7538,"ARG_OF_PERICENTER":117.9602,"MEAN_ANOMALY":242.1423,"EPHEMERIS_TYPE":0,"NORAD_CAT_ID":67773,"ELEMENT_SET_NO":999,"REV_AT_EPOCH":2350,"BSTAR":0.000019325111,"MEAN_MOTION_DOT":-7.4e-7,"MEAN_MOTION_DDOT":0},{"OBJECT_NAME":"KUIPER-00205","OBJECT_ID":"2026-030L","EPOCH":"2026-07-11T16:51:52.693344","CLASSIFICATION_TYPE":"U","MEAN_MOTION":14.79983108,"ECCENTRICITY":0.0000892,"INCLINATION":51.9013,"RA_OF_ASC_NODE":354.7143,"ARG_OF_PERICENTER":110.8868,"MEAN_ANOMALY":249.219,"EPHEMERIS_TYPE":0,"NORAD_CAT_ID":67774,"ELEMENT_SET_NO":999,"REV_AT_EPOCH":2396,"BSTAR":0.00026466302,"MEAN_MOTION_DOT":0.00001799,"MEAN_MOTION_DDOT":0},{"OBJECT_NAME":"KUIPER-00208","OBJECT_ID":"2026-030M","EPOCH":"2026-07-11T21:34:12.262656","CLASSIFICATION_TYPE":"U","MEAN_MOTION":14.76515059,"ECCENTRICITY":0.00082396,"INCLINATION":51.8993,"RA_OF_ASC_NODE":21.2478,"ARG_OF_PERICENTER":113.2472,"MEAN_ANOMALY":246.9357,"EPHEMERIS_TYPE":0,"NORAD_CAT_ID":67775,"ELEMENT_SET_NO":999,"REV_AT_EPOCH":2360,"BSTAR":0.00021947126,"MEAN_MOTION_DOT":0.00001328,"MEAN_MOTION_DDOT":0},{"OBJECT_NAME":"KUIPER-00209","OBJECT_ID":"2026-030N","EPOCH":"2026-07-11T16:13:10.838496","CLASSIFICATION_TYPE":"U","MEAN_MOTION":14.79939256,"ECCENTRICITY":0.00007284,"INCLINATION":51.9004,"RA_OF_ASC_NODE":19.9344,"ARG_OF_PERICENTER":119.1784,"MEAN_ANOMALY":240.9252,"EPHEMERIS_TYPE":0,"NORAD_CAT_ID":67776,"ELEMENT_SET_NO":999,"REV_AT_EPOCH":2360,"BSTAR":0.0002827433,"MEAN_MOTION_DOT":0.00001935,"MEAN_MOTION_DDOT":0},{"OBJECT_NAME":"KUIPER-00213","OBJECT_ID":"2026-030P","EPOCH":"2026-07-11T12:13:57.210816","CLASSIFICATION_TYPE":"U","MEAN_MOTION":14.79929172,"ECCENTRICITY":0.00007126,"INCLINATION":51.8968,"RA_OF_ASC_NODE":18.1513,"ARG_OF_PERICENTER":127.4276,"MEAN_ANOMALY":232.6751,"EPHEMERIS_TYPE":0,"NORAD_CAT_ID":67777,"ELEMENT_SET_NO":999,"REV_AT_EPOCH":2361,"BSTAR":-0.000061897623,"MEAN_MOTION_DOT":-0.00000693,"MEAN_MOTION_DDOT":0},{"OBJECT_NAME":"KUIPER-00214","OBJECT_ID":"2026-030Q","EPOCH":"2026-07-11T21:12:42.079968","CLASSIFICATION_TYPE":"U","MEAN_MOTION":14.79933775,"ECCENTRICITY":0.0000619,"INCLINATION":51.9002,"RA_OF_ASC_NODE":14.0044,"ARG_OF_PERICENTER":134.4715,"MEAN_ANOMALY":225.6298,"EPHEMERIS_TYPE":0,"NORAD_CAT_ID":67778,"ELEMENT_SET_NO":999,"REV_AT_EPOCH":2370,"BSTAR":0.00028076043,"MEAN_MOTION_DOT":0.0000192,"MEAN_MOTION_DDOT":0}]}
