KUIPER-00265            
1 67159U 25301AC  26192.18329229  .00001575  00000+0  23550-3 0  9990
2 67159  51.9013 259.5540 0000651 111.5917 248.5115 14.79938951 31776
KUIPER-00159            
1 67764U 26030A   26192.91670139 -.01900618  00000+0 -68829-1 0  9997
2 67764  51.8876 338.7757 0005832 117.7899 134.1491 15.31477323  4932
KUIPER-00160            
1 67765U 26030B   26192.66744332  .00019888  00000+0  54213-3 0  9998
2 67765  51.8811 339.8453 0006944 138.4719 221.6796 15.37440793 24167
KUIPER-00177            
1 67766U 26030C   26192.94055336  .00001717  00000+0  25420-3 0  9999
2 67766  51.9007  23.6866 0000634 108.2247 251.8784 14.79932354 23573
KUIPER-00178            
1 67767U 26030D   26192.90678118  .00001945  00000+0  28401-3 0  9990
2 67767  51.9004  23.8185 0000777 121.3832 238.7206 14.79935871 23571
KUIPER-00180            
1 67768U 26030E   26192.50699366  .00002090  00000+0  30306-3 0  9994
2 67768  51.8987  20.5898 0000725 115.6553 244.4484 14.79934101 23583
KUIPER-00197            
1 67769U 26030F   26192.66362491  .00001979  00000+0  28856-3 0  9990
2 67769  51.8991 359.9102 0000649 159.9862 200.1126 14.79935432 23888
KUIPER-00198            
1 67770U 26030G   26192.88647617  .00001915  00000+0  28026-3 0  9991
2 67770  51.9003  11.4057 0000674 127.7238 232.3786 14.79917712 23747
KUIPER-00199            
1 67771U 26030H   26192.62563749  .00022040  00000+0  60788-3 0  9990
2 67771  51.8814 341.7773 0010122 140.6385 219.5339 15.36983700 24136
KUIPER-00200            
1 67772U 26030J   26192.76754224 -.00006442  00000+0 -81778-3 0  9998
2 67772  51.9002 356.9748 0001277  77.8932 282.2173 14.79882032 23939
KUIPER-00203            
1 67773U 26030K   26192.93515243 -.00000074  00000+0  19325-4 0  9998
2 67773  51.9061  28.7538 0000620 117.9602 242.1423 14.79930250 23509
KUIPER-00205            
1 67774U 26030L   26192.70269321  .00001799  00000+0  26466-3 0  9994
2 67774  51.9013 354.7143 0000892 110.8868 249.2190 14.79983108 23967
KUIPER-00208            
1 67775U 26030M   26192.89875304  .00001328  00000+0  21947-3 0  9996
2 67775  51.8993  21.2478 0008239 113.2472 246.9357 14.76515059 23605
KUIPER-00209            
1 67776U 26030N   26192.67581989  .00001935  00000+0  28274-3 0  9990
2 67776  51.9004  19.9344 0000728 119.1784 240.9252 14.79939256 23602
KUIPER-00213            
1 67777U 26030P   26192.50968994 -.00000693  00000+0 -61898-4 0  9990
2 67777  51.8968  18.1513 0000712 127.4276 232.6751 14.79929172 23610
KUIPER-00214            
1 67778U 26030Q   26192.88382037  .00001920  00000+0  28076-3 0  9992
2 67778  51.9002  14.0044 0000619 134.4715 225.6298 14.79933775 23709
